[
    {
        "Altitude(m)": 717759.9778366004,
        "Argument of Periapsis(deg)": 0.0022780242373254137,
        "Eccentricity": 0.0,
        "Inclination(deg)": 45.0,
        "Latitude(deg)": -44.85517950453676,
        "Longitude(deg)": 136.6087365518708,
        "Mean Anomaly(deg)": -95.87515667050391,
        "RAAN(deg)": 334.9978496117084,
        "Satellite Name": "Constellation 1 1490",
        "Satellite Number": 1490,
        "Semi-Major Axis(m)": 7083131.272910544,
        "Time(s)": 38
    },
    {
        "Altitude(m)": 717762.4951953318,
        "Argument of Periapsis(deg)": 0.002337972243570819,
        "Eccentricity": 0.0,
        "Inclination(deg)": 45.0,
        "Latitude(deg)": -44.86130980913206,
        "Longitude(deg)": 136.6893902255553,
        "Mean Anomaly(deg)": -95.81445553025395,
        "RAAN(deg)": 334.99779302254285,
        "Satellite Name": "Constellation 1 1490",
        "Satellite Number": 1490,
        "Semi-Major Axis(m)": 7083131.272910544,
        "Time(s)": 39
    },
    {
        "Altitude(m)": 717764.9865913366,
        "Argument of Periapsis(deg)": 0.0023979202498162246,
        "Eccentricity": 0.0,
        "Inclination(deg)": 45.0,
        "Latitude(deg)": -44.867377208252044,
        "Longitude(deg)": 136.77006175940076,
        "Mean Anomaly(deg)": -95.75375439000396,
        "RAAN(deg)": 334.9977364333772,
        "Satellite Name": "Constellation 1 1490",
        "Satellite Number": 1490,
        "Semi-Major Axis(m)": 7083131.272910544,
        "Time(s)": 40
    },
    {
        "Altitude(m)": 717767.4520153955,
        "Argument of Periapsis(deg)": 0.00245786825606163,
        "Eccentricity": 0.0,
        "Inclination(deg)": 45.0,
        "Latitude(deg)": -44.87338167568503,
        "Longitude(deg)": 136.8507509766278,
        "Mean Anomaly(deg)": -95.69305324975413,
        "RAAN(deg)": 334.9976798442117,
        "Satellite Name": "Constellation 1 1490",
        "Satellite Number": 1490,
        "Semi-Major Axis(m)": 7083131.272910544,
        "Time(s)": 41
    },
    {
        "Altitude(m)": 717769.8914583914,
        "Argument of Periapsis(deg)": 0.002517816262307036,
        "Eccentricity": 0.0,
        "Inclination(deg)": 45.0,
        "Latitude(deg)": -44.879323185477595,
        "Longitude(deg)": 136.9314577001524,
        "Mean Anomaly(deg)": -95.63235210950425,
        "RAAN(deg)": 334.9976232550461,
        "Satellite Name": "Constellation 1 1490",
        "Satellite Number": 1490,
        "Semi-Major Axis(m)": 7083131.272910544,
        "Time(s)": 42
    },
    {
        "Altitude(m)": 717772.3049112945,
        "Argument of Periapsis(deg)": 0.0025777642685524413,
        "Eccentricity": 0.0,
        "Inclination(deg)": 45.0,
        "Latitude(deg)": -44.885201711935174,
        "Longitude(deg)": 137.01218175258813,
        "Mean Anomaly(deg)": -95.5716509692543,
        "RAAN(deg)": 334.9975666658805,
        "Satellite Name": "Constellation 1 1490",
        "Satellite Number": 1490,
        "Semi-Major Axis(m)": 7083131.272910544,
        "Time(s)": 43
    },
    {
        "Altitude(m)": 717774.6923651762,
        "Argument of Periapsis(deg)": 0.002637712274797847,
        "Eccentricity": 0.0,
        "Inclination(deg)": 45.0,
        "Latitude(deg)": -44.89101722962225,
        "Longitude(deg)": 137.09292278815204,
        "Mean Anomaly(deg)": -95.51094982900437,
        "RAAN(deg)": 334.997510076715,
        "Satellite Name": "Constellation 1 1490",
        "Satellite Number": 1490,
        "Semi-Major Axis(m)": 7083131.272910544,
        "Time(s)": 44
    },
    {
        "Altitude(m)": 717777.053811204,
        "Argument of Periapsis(deg)": 0.0026976602810432526,
        "Eccentricity": 0.0,
        "Inclination(deg)": 45.0,
        "Latitude(deg)": -44.896769713363796,
        "Longitude(deg)": 137.17368096505493,
        "Mean Anomaly(deg)": -95.45024868875454,
        "RAAN(deg)": 334.9974534875494,
        "Satellite Name": "Constellation 1 1490",
        "Satellite Number": 1490,
        "Semi-Major Axis(m)": 7083131.272910544,
        "Time(s)": 45
    },
    {
        "Altitude(m)": 717779.3892406381,
        "Argument of Periapsis(deg)": 0.0027576082872886585,
        "Eccentricity": 0.0,
        "Inclination(deg)": 45.0,
        "Latitude(deg)": -44.90245913824457,
        "Longitude(deg)": 137.25445593692402,
        "Mean Anomaly(deg)": -95.38954754850461,
        "RAAN(deg)": 334.99739689838384,
        "Satellite Name": "Constellation 1 1490",
        "Satellite Number": 1490,
        "Semi-Major Axis(m)": 7083131.272910544,
        "Time(s)": 46
    },
    {
        "Altitude(m)": 717781.6986448395,
        "Argument of Periapsis(deg)": 0.0028175562935340644,
        "Eccentricity": 0.0,
        "Inclination(deg)": 45.0,
        "Latitude(deg)": -44.90808547961036,
        "Longitude(deg)": 137.33524752519202,
        "Mean Anomaly(deg)": -95.32884640825466,
        "RAAN(deg)": 334.99734030921826,
        "Satellite Name": "Constellation 1 1490",
        "Satellite Number": 1490,
        "Semi-Major Axis(m)": 7083131.272910544,
        "Time(s)": 47
    },
    {
        "Altitude(m)": 717783.9820152591,
        "Argument of Periapsis(deg)": 0.00287750429977947,
        "Eccentricity": 0.0,
        "Inclination(deg)": 45.0,
        "Latitude(deg)": -44.913648713068326,
        "Longitude(deg)": 137.41605555100355,
        "Mean Anomaly(deg)": -95.26814526800483,
        "RAAN(deg)": 334.9972837200527,
        "Satellite Name": "Constellation 1 1490",
        "Satellite Number": 1490,
        "Semi-Major Axis(m)": 7083131.272910544,
        "Time(s)": 48
    },
    {
        "Altitude(m)": 717786.2393434462,
        "Argument of Periapsis(deg)": 0.002937452306024875,
        "Eccentricity": 0.0,
        "Inclination(deg)": 45.0,
        "Latitude(deg)": -44.91914881448752,
        "Longitude(deg)": 137.49687983521838,
        "Mean Anomaly(deg)": -95.20744412775495,
        "RAAN(deg)": 334.99722713088715,
        "Satellite Name": "Constellation 1 1490",
        "Satellite Number": 1490,
        "Semi-Major Axis(m)": 7083131.272910544,
        "Time(s)": 49
    },
    {
        "Altitude(m)": 717788.470621051,
        "Argument of Periapsis(deg)": 0.0029974003122702807,
        "Eccentricity": 0.0,
        "Inclination(deg)": 45.0,
        "Latitude(deg)": -44.92458575999939,
        "Longitude(deg)": 137.57772019841414,
        "Mean Anomaly(deg)": -95.146742987505,
        "RAAN(deg)": 334.9971705417216,
        "Satellite Name": "Constellation 1 1490",
        "Satellite Number": 1490,
        "Semi-Major Axis(m)": 7083131.272910544,
        "Time(s)": 50
    },
    {
        "Altitude(m)": 717790.6758398111,
        "Argument of Periapsis(deg)": 0.0030573483185156866,
        "Eccentricity": 0.0,
        "Inclination(deg)": 45.0,
        "Latitude(deg)": -44.92995952599818,
        "Longitude(deg)": 137.65857646088878,
        "Mean Anomaly(deg)": -95.08604184725513,
        "RAAN(deg)": 334.997113952556,
        "Satellite Name": "Constellation 1 1490",
        "Satellite Number": 1490,
        "Semi-Major Axis(m)": 7083131.272910544,
        "Time(s)": 51
    },
    {
        "Altitude(m)": 717792.854991566,
        "Argument of Periapsis(deg)": 0.003117296324761092,
        "Eccentricity": 0.0,
        "Inclination(deg)": 45.0,
        "Latitude(deg)": -44.93527008914126,
        "Longitude(deg)": 137.73944827456737,
        "Mean Anomaly(deg)": -95.0253407070053,
        "RAAN(deg)": 334.9970573633904,
        "Satellite Name": "Constellation 1 1490",
        "Satellite Number": 1490,
        "Semi-Major Axis(m)": 7083131.272910544,
        "Time(s)": 52
    },
    {
        "Altitude(m)": 717795.0080682499,
        "Argument of Periapsis(deg)": 0.0031772443310064975,
        "Eccentricity": 0.0,
        "Inclination(deg)": 45.0,
        "Latitude(deg)": -44.94051742635053,
        "Longitude(deg)": 137.82033579539197,
        "Mean Anomaly(deg)": -94.9646395667553,
        "RAAN(deg)": 334.99700077422483,
        "Satellite Name": "Constellation 1 1490",
        "Satellite Number": 1490,
        "Semi-Major Axis(m)": 7083131.272910544,
        "Time(s)": 53
    },
    {
        "Altitude(m)": 717797.1350618969,
        "Argument of Periapsis(deg)": 0.0032371923372519038,
        "Eccentricity": 0.0,
        "Inclination(deg)": 45.0,
        "Latitude(deg)": -44.94570151481148,
        "Longitude(deg)": 137.90123867474344,
        "Mean Anomaly(deg)": -94.90393842650548,
        "RAAN(deg)": 334.9969441850593,
        "Satellite Name": "Constellation 1 1490",
        "Satellite Number": 1490,
        "Semi-Major Axis(m)": 7083131.272910544,
        "Time(s)": 54
    },
    {
        "Altitude(m)": 717799.2359646284,
        "Argument of Periapsis(deg)": 0.0032971403434973088,
        "Eccentricity": 0.0,
        "Inclination(deg)": 45.0,
        "Latitude(deg)": -44.95082233197464,
        "Longitude(deg)": 137.98215673183245,
        "Mean Anomaly(deg)": -94.84323728625552,
        "RAAN(deg)": 334.9968875958937,
        "Satellite Name": "Constellation 1 1490",
        "Satellite Number": 1490,
        "Semi-Major Axis(m)": 7083131.272910544,
        "Time(s)": 55
    },
    {
        "Altitude(m)": 717801.3107686731,
        "Argument of Periapsis(deg)": 0.0033570883497427146,
        "Eccentricity": 0.0,
        "Inclination(deg)": 45.0,
        "Latitude(deg)": -44.95587985555569,
        "Longitude(deg)": 138.06308978560443,
        "Mean Anomaly(deg)": -94.78253614600558,
        "RAAN(deg)": 334.9968310067281,
        "Satellite Name": "Constellation 1 1490",
        "Satellite Number": 1490,
        "Semi-Major Axis(m)": 7083131.272910544,
        "Time(s)": 56
    }
]